SL-14 R/B               
1 21423U 91042B   25342.86525858  .00000905  00000+0  11160-3 0  9996
2 21423  82.4921 305.3563 0017093 174.2457 185.8957 14.81733947839623
ERS-1                   
1 21574U 91050A   25342.98310632  .00000476  00000+0  16691-3 0  9994
2 21574  98.7905 353.9439 0032935 110.8135 249.6584 14.39359602802680
ARIANE 40 R/B           
1 21610U 91050F   25342.76421058  .00000767  00000+0  24256-3 0  9995
2 21610  98.2169  33.3380 0003036  12.7312 347.3955 14.42809111805881
INTERCOSMOS 25          
1 21819U 91086A   25343.00271764  .00002025  00000+0  40199-3 0  9993
2 21819  82.6071   4.8352 1486852 312.4541  35.9772 12.11709193485704
SL-8 R/B                
1 21876U 92008B   25342.97036991  .00000157  00000+0  14546-3 0  9998
2 21876  82.9262 335.2504 0035406  30.1372  29.1674 13.75957672696946
SL-8 R/B                
1 21938U 92020B   25342.68422632  .00000138  00000+0  12682-3 0  9998
2 21938  82.9311 221.3289 0028633 189.5951 179.2732 13.75526055688626
USA 81                  
1 21949U 92023A   25342.98216665  .00000264  00000+0  90294-4 0  9999
2 21949  85.0084 183.7434 0001567  63.0791 297.0562 14.32324698 81807
COSMOS 2219             
1 22219U 92076A   25342.97543183 -.00000124  00000+0 -40256-4 0  9995
2 22219  71.0587 207.7019 0019011 331.9074  28.1021 14.14062655705551
SL-16 R/B               
1 22220U 92076B   25342.85596501 -.00000132  00000+0 -42018-4 0  9993
2 22220  71.0011  19.7135 0014936 239.4702 292.9185 14.16841362708968
COSMOS 2221             
1 22236U 92080A   25342.80397952  .00003490  00000+0  31030-3 0  9998
2 22236  82.5043   6.0923 0015797 133.7551 226.4982 14.95738684767203
SL-16 R/B               
1 22285U 92093B   25342.92785251  .00000192  00000+0  12272-3 0  9995
2 22285  71.0201 194.7978 0002089  83.9602 276.1759 14.15426807700310
COSMOS 2228             
1 22286U 92094A   25342.94643707  .00003310  00000+0  28703-3 0  9999
2 22286  82.5177 324.1638 0016327 245.2790 114.6734 14.96700074762488
